{
 "generated_at": "2026-07-10T08:23:00Z",
 "sources": [
  {
   "name": "CelesTrak",
   "url": "https://celestrak.org/NORAD/elements/",
   "license": "frei verfügbar; Attribution. Ursprünglich USSPACECOM/Space-Track."
  },
  {
   "name": "GCAT (J. McDowell, planet4589.org)",
   "url": "https://planet4589.org/space/gcat/",
   "license": "CC-BY 4.0"
  }
 ],
 "satellites": [
  {
   "norad": 32376,
   "name": "COSMO-SKYMED 2",
   "intl": "2007-059A",
   "group": "resource",
   "gcat": {
    "class": "D",
    "category": "IMG-R",
    "owner": "ASI",
    "state": "I"
   },
   "omm": {
    "OBJECT_NAME": "COSMO-SKYMED 2",
    "OBJECT_ID": "2007-059A",
    "EPOCH": "2026-07-09T20:16:10.219008",
    "MEAN_MOTION": 14.82147829,
    "ECCENTRICITY": 0.0001422,
    "INCLINATION": 97.8891,
    "RA_OF_ASC_NODE": 14.1144,
    "ARG_OF_PERICENTER": 93.1792,
    "MEAN_ANOMALY": 266.9584,
    "EPHEMERIS_TYPE": 0,
    "CLASSIFICATION_TYPE": "U",
    "NORAD_CAT_ID": 32376,
    "ELEMENT_SET_NO": 999,
    "REV_AT_EPOCH": 536,
    "BSTAR": 0.000046821,
    "MEAN_MOTION_DOT": 0.0000032,
    "MEAN_MOTION_DDOT": 0
   }
  },
  {
   "norad": 33412,
   "name": "COSMO-SKYMED 3",
   "intl": "2008-054A",
   "group": "resource",
   "gcat": {
    "class": null,
    "category": null,
    "owner": null,
    "state": null
   },
   "omm": {
    "OBJECT_NAME": "COSMO-SKYMED 3",
    "OBJECT_ID": "2008-054A",
    "EPOCH": "2026-07-09T20:25:39.842112",
    "MEAN_MOTION": 15.07095704,
    "ECCENTRICITY": 0.0015352,
    "INCLINATION": 97.8269,
    "RA_OF_ASC_NODE": 49.7973,
    "ARG_OF_PERICENTER": 183.2434,
    "MEAN_ANOMALY": 176.8696,
    "EPHEMERIS_TYPE": 0,
    "CLASSIFICATION_TYPE": "U",
    "NORAD_CAT_ID": 33412,
    "ELEMENT_SET_NO": 999,
    "REV_AT_EPOCH": 96035,
    "BSTAR": 0.00016502,
    "MEAN_MOTION_DOT": 0.00002417,
    "MEAN_MOTION_DDOT": 0
   }
  },
  {
   "norad": 37216,
   "name": "COSMO-SKYMED 4",
   "intl": "2010-060A",
   "group": "resource",
   "gcat": {
    "class": "D",
    "category": "IMG-R",
    "owner": "ASI",
    "state": "I"
   },
   "omm": {
    "OBJECT_NAME": "COSMO-SKYMED 4",
    "OBJECT_ID": "2010-060A",
    "EPOCH": "2026-07-09T20:34:23.909952",
    "MEAN_MOTION": 14.8214529,
    "ECCENTRICITY": 0.0001481,
    "INCLINATION": 97.8897,
    "RA_OF_ASC_NODE": 14.1292,
    "ARG_OF_PERICENTER": 84.5478,
    "MEAN_ANOMALY": 275.5904,
    "EPHEMERIS_TYPE": 0,
    "CLASSIFICATION_TYPE": "U",
    "NORAD_CAT_ID": 37216,
    "ELEMENT_SET_NO": 999,
    "REV_AT_EPOCH": 84792,
    "BSTAR": 0.000040122,
    "MEAN_MOTION_DOT": 0.00000267,
    "MEAN_MOTION_DDOT": 0
   }
  },
  {
   "norad": 44873,
   "name": "CSG-1",
   "intl": "2019-092A",
   "group": "resource",
   "gcat": {
    "class": "D",
    "category": "IMG-R",
    "owner": "MDDI/ASI",
    "state": "I"
   },
   "omm": {
    "OBJECT_NAME": "CSG-1",
    "OBJECT_ID": "2019-092A",
    "EPOCH": "2026-07-09T19:15:28.668096",
    "MEAN_MOTION": 14.82148516,
    "ECCENTRICITY": 0.0001502,
    "INCLINATION": 97.8894,
    "RA_OF_ASC_NODE": 14.0779,
    "ARG_OF_PERICENTER": 90.657,
    "MEAN_ANOMALY": 269.4815,
    "EPHEMERIS_TYPE": 0,
    "CLASSIFICATION_TYPE": "U",
    "NORAD_CAT_ID": 44873,
    "ELEMENT_SET_NO": 999,
    "REV_AT_EPOCH": 35482,
    "BSTAR": 0.000036977,
    "MEAN_MOTION_DOT": 0.00000242,
    "MEAN_MOTION_DDOT": 0
   }
  },
  {
   "norad": 51444,
   "name": "CSG-2",
   "intl": "2022-008A",
   "group": "resource",
   "gcat": {
    "class": "D",
    "category": "IMG-R",
    "owner": "MDDI/ASI",
    "state": "I"
   },
   "omm": {
    "OBJECT_NAME": "CSG-2",
    "OBJECT_ID": "2022-008A",
    "EPOCH": "2026-07-09T20:04:01.142112",
    "MEAN_MOTION": 14.82147479,
    "ECCENTRICITY": 0.0001523,
    "INCLINATION": 97.8898,
    "RA_OF_ASC_NODE": 14.1061,
    "ARG_OF_PERICENTER": 84.9757,
    "MEAN_ANOMALY": 275.163,
    "EPHEMERIS_TYPE": 0,
    "CLASSIFICATION_TYPE": "U",
    "NORAD_CAT_ID": 51444,
    "ELEMENT_SET_NO": 999,
    "REV_AT_EPOCH": 23994,
    "BSTAR": 9.3116e-8,
    "MEAN_MOTION_DOT": -5.1e-7,
    "MEAN_MOTION_DDOT": 0
   }
  },
  {
   "norad": 67304,
   "name": "CSG-3",
   "intl": "2026-001A",
   "group": "resource",
   "gcat": {
    "class": "D",
    "category": "IMG-R",
    "owner": "MDDI/ASI",
    "state": "I"
   },
   "omm": {
    "OBJECT_NAME": "CSG-3",
    "OBJECT_ID": "2026-001A",
    "EPOCH": "2026-07-09T17:56:28.955040",
    "MEAN_MOTION": 14.82149656,
    "ECCENTRICITY": 0.0001499,
    "INCLINATION": 97.8893,
    "RA_OF_ASC_NODE": 14.0231,
    "ARG_OF_PERICENTER": 92.4764,
    "MEAN_ANOMALY": 267.6621,
    "EPHEMERIS_TYPE": 0,
    "CLASSIFICATION_TYPE": "U",
    "NORAD_CAT_ID": 67304,
    "ELEMENT_SET_NO": 999,
    "REV_AT_EPOCH": 2780,
    "BSTAR": 0.000032153,
    "MEAN_MOTION_DOT": 0.00000204,
    "MEAN_MOTION_DDOT": 0
   }
  },
  {
   "norad": 41887,
   "name": "CYGFM01",
   "intl": "2016-078D",
   "group": "weather",
   "gcat": {
    "class": "C",
    "category": "EOSCI",
    "owner": "LARCN/SWRIB",
    "state": "US"
   },
   "omm": {
    "OBJECT_NAME": "CYGFM01",
    "OBJECT_ID": "2016-078D",
    "EPOCH": "2026-07-09T05:06:08.366976",
    "MEAN_MOTION": 15.58363321,
    "ECCENTRICITY": 0.00070858,
    "INCLINATION": 34.9387,
    "RA_OF_ASC_NODE": 115.5083,
    "ARG_OF_PERICENTER": 333.7485,
    "MEAN_ANOMALY": 26.2879,
    "EPHEMERIS_TYPE": 0,
    "CLASSIFICATION_TYPE": "U",
    "NORAD_CAT_ID": 41887,
    "ELEMENT_SET_NO": 999,
    "REV_AT_EPOCH": 53214,
    "BSTAR": 0.0002728978,
    "MEAN_MOTION_DOT": 0.00021464,
    "MEAN_MOTION_DDOT": 0
   }
  },
  {
   "norad": 41886,
   "name": "CYGFM02",
   "intl": "2016-078C",
   "group": "weather",
   "gcat": {
    "class": "C",
    "category": "EOSCI",
    "owner": "LARCN/SWRIB",
    "state": "US"
   },
   "omm": {
    "OBJECT_NAME": "CYGFM02",
    "OBJECT_ID": "2016-078C",
    "EPOCH": "2026-07-09T19:00:49.015872",
    "MEAN_MOTION": 15.66068349,
    "ECCENTRICITY": 0.0005778,
    "INCLINATION": 34.9401,
    "RA_OF_ASC_NODE": 71.1594,
    "ARG_OF_PERICENTER": 28.5918,
    "MEAN_ANOMALY": 331.5125,
    "EPHEMERIS_TYPE": 0,
    "CLASSIFICATION_TYPE": "U",
    "NORAD_CAT_ID": 41886,
    "ELEMENT_SET_NO": 999,
    "REV_AT_EPOCH": 53271,
    "BSTAR": 0.00031391,
    "MEAN_MOTION_DOT": 0.00033425,
    "MEAN_MOTION_DDOT": 0
   }
  },
  {
   "norad": 41891,
   "name": "CYGFM03",
   "intl": "2016-078H",
   "group": "weather",
   "gcat": {
    "class": "C",
    "category": "EOSCI",
    "owner": "LARCN/SWRIB",
    "state": "US"
   },
   "omm": {
    "OBJECT_NAME": "CYGFM03",
    "OBJECT_ID": "2016-078H",
    "EPOCH": "2026-07-09T18:22:16.398048",
    "MEAN_MOTION": 15.61327759,
    "ECCENTRICITY": 0.000542,
    "INCLINATION": 34.9397,
    "RA_OF_ASC_NODE": 81.0553,
    "ARG_OF_PERICENTER": 10.009,
    "MEAN_ANOMALY": 350.0742,
    "EPHEMERIS_TYPE": 0,
    "CLASSIFICATION_TYPE": "U",
    "NORAD_CAT_ID": 41891,
    "ELEMENT_SET_NO": 999,
    "REV_AT_EPOCH": 53250,
    "BSTAR": 0.0002622,
    "MEAN_MOTION_DOT": 0.00023098,
    "MEAN_MOTION_DDOT": 0
   }
  },
  {
   "norad": 41885,
   "name": "CYGFM04",
   "intl": "2016-078B",
   "group": "weather",
   "gcat": {
    "class": "C",
    "category": "EOSCI",
    "owner": "LARCN/SWRIB",
    "state": "US"
   },
   "omm": {
    "OBJECT_NAME": "CYGFM04",
    "OBJECT_ID": "2016-078B",
    "EPOCH": "2026-07-09T20:04:32.748960",
    "MEAN_MOTION": 15.62839197,
    "ECCENTRICITY": 0.0004982,
    "INCLINATION": 34.9322,
    "RA_OF_ASC_NODE": 77.0141,
    "ARG_OF_PERICENTER": 25.1233,
    "MEAN_ANOMALY": 334.9734,
    "EPHEMERIS_TYPE": 0,
    "CLASSIFICATION_TYPE": "U",
    "NORAD_CAT_ID": 41885,
    "ELEMENT_SET_NO": 999,
    "REV_AT_EPOCH": 53254,
    "BSTAR": 0.00027151,
    "MEAN_MOTION_DOT": 0.00025381,
    "MEAN_MOTION_DDOT": 0
   }
  }
 ]
}
